STARLINK-5113           
1 53988U 22125AA  22296.91667824 -.00127092  00000+0 -91154-3 0  9994
2 53988  53.2194   2.7487 0002789  17.2475 266.4478 15.73278105  1309
STARLINK-5115           
1 53989U 22125AB  22297.16668981 -.00144767  00000+0 -10443-2 0  9997
2 53989  53.2191   1.5125 0003322  11.2685 248.1204 15.73203436  3259
STARLINK-5075           
1 53990U 22125AC  22297.16668981 -.00100129  00000+0 -71757-3 0  9999
2 53990  53.2196   1.5072 0002561  12.8596 249.4732 15.73193454  3257
STARLINK-5118           
1 53991U 22125AD  22296.91667824 -.00547169  00000+0 -38733-2 0  9992
2 53991  53.2181   2.0525 0001598  33.1635 232.5697 15.74808668  1308
STARLINK-5108           
1 53992U 22125AE  22296.91667824 -.00096866  00000+0 -69222-3 0  9994
2 53992  53.2191   2.7424 0002547  16.8547 269.8671 15.73245529  1305
STARLINK-5121           
1 53993U 22125AF  22296.91667824 -.00146809  00000+0 -10566-2 0  9994
2 53993  53.2199   2.7449 0002372  19.4925 265.4609 15.73269154  1309
STARLINK-5125           
1 53994U 22125AG  22297.16668981 -.00123045  00000+0 -88549-3 0  9992
2 53994  53.2190   1.4990 0002700  24.5770 241.3286 15.73185337  3258
STARLINK-5097           
1 53995U 22125AH  22296.91667824 -.00123784  00000+0 -88859-3 0  9994
2 53995  53.2188   2.7401 0002940  13.3545 273.9606 15.73244673  1309
STARLINK-5131           
1 53996U 22125AJ  22296.91667824 -.00122191  00000+0 -87654-3 0  9998
2 53996  53.2195   2.7364 0002634  16.3738 273.3666 15.73256743  1304
STARLINK-5130           
1 53997U 22125AK  22297.25001157 -.00117941  00000+0 -84777-3 0  9998
2 53997  53.2189   1.0899 0002421  18.3186 358.5494 15.73194746  3262
STARLINK-5128           
1 53998U 22125AL  22296.91667824 -.00109387  00000+0 -78287-3 0  9994
2 53998  53.2188   2.7338 0002713  14.2733 276.6257 15.73261391  1306
STARLINK-5079           
1 53999U 22125AM  22296.91667824 -.00122327  00000+0 -87709-3 0  9993
2 53999  53.2194   2.7384 0002588  16.5089 272.0193 15.73268941  1301
STARLINK-5088           
1 54000U 22125AN  22296.91667824 -.00141034  00000+0 -10140-2 0  9997
2 54000  53.2196   2.7328 0002338  19.7950 271.7472 15.73273308  1309
STARLINK-5105           
1 54001U 22125AP  22297.25001157 -.00068909  00000+0 -49157-3 0  9997
2 54001  53.2190   1.0816 0002712  27.6709 353.4101 15.73147798  3250
STARLINK-5109           
1 54002U 22125AQ  22296.91667824  .00264124  00000+0  18411-2 0  9992
2 54002  53.2189   2.6987 0002761  29.2024 282.4340 15.73028532  1301
STARLINK-5114           
1 54003U 22125AR  22297.25001157 -.00095241  00000+0 -68243-3 0  9995
2 54003  53.2195   1.0853 0002616  15.4632   3.7981 15.73175952  3255
STARLINK-5129           
1 54004U 22125AS  22296.91667824 -.00125361  00000+0 -89907-3 0  9994
2 54004  53.2194   2.7280 0002897  11.1485 282.7845 15.73272588  3203
STARLINK-5135           
1 54005U 22125AT  22297.25001157 -.00163279  00000+0 -11817-2 0  9998
2 54005  53.2188   1.0800 0002624  18.1013   3.5781 15.73193306  3252
STARLINK-5096           
1 54006U 22125AU  22297.25001157 -.00131927  00000+0 -95050-3 0  9996
2 54006  53.2195   1.0733 0002483  26.2836 359.5555 15.73192060  3251
STARLINK-5132           
1 54007U 22125AV  22297.25001157 -.00165498  00000+0 -11968-2 0  9992
2 54007  53.2191   1.0775 0002240  19.5983   3.7355 15.73221279  3254
STARLINK-5145           
1 54008U 22125AW  22296.91667824 -.00147370  00000+0 -10609-2 0  9994
2 54008  53.2187   2.4574 0001626  40.6568  28.4085 15.73268686  1304
STARLINK-5099           
1 54009U 22125AX  22297.25001157 -.00173102  00000+0 -12534-2 0  9995
2 54009  53.2194   1.0745 0002747  24.8344 359.8111 15.73213251  3254
STARLINK-5127           
1 54010U 22125AY  22296.91667824 -.00062439  00000+0 -44260-3 0  9990
2 54010  53.2217   2.4544 0001647  31.4769  39.4684 15.73260370  3202
STARLINK-5124           
1 54011U 22125AZ  22296.91667824 -.00105057  00000+0 -75204-3 0  9997
2 54011  53.2189   2.7254 0002351  24.1969 270.9138 15.73240808  3206
STARLINK-5126           
1 54012U 22125BA  22297.25001157 -.00163436  00000+0 -11833-2 0  9999
2 54012  53.2196   1.0681 0002565  18.9525   9.2829 15.73185031  3258
STARLINK-5098           
1 54013U 22125BB  22297.25001157 -.00154621  00000+0 -11174-2 0  9994
2 54013  53.2190   1.0696 0002963  22.7116   4.3080 15.73196873  3251
STARLINK-5116           
1 54014U 22125BC  22297.25001157 -.00155730  00000+0 -11258-2 0  9990
2 54014  53.2195   1.0699 0002779  15.6378  11.9856 15.73193683  3257
STARLINK-5055           
1 54015U 22125BD  22297.25001157 -.00150167  00000+0 -10847-2 0  9993
2 54015  53.2189   1.0648 0002733  21.7971   7.6096 15.73194210  3257
FALCON 9 DEB            
1 54016U 22125BE  22297.15468914  .00345936  59591-4  78229-3 0  9992
2 54016  53.2338 359.7724 0011225   1.2740 358.8318 15.96978696  3212
FALCON 9 DEB            
1 54017U 22125BF  22297.01991688  .00415126  83387-4  85492-3 0  9996
2 54017  53.2300   0.3450 0009618   3.0223 357.0865 15.98662025  3199
FALCON 9 DEB            
1 54018U 22125BG  22297.00426130  .00456834  10179-3  84068-3 0  9998
2 54018  53.2251   0.2287 0011250 344.8902  15.1792 16.00586686  3190
FALCON 9 DEB            
1 54019U 22125BH  22297.00377713  .00390218  76013-4  74194-3 0  9993
2 54019  53.2227   0.2204 0008607 337.4896  22.5757 16.00090221  3193
CENTISPACE-1 S5         
1 54020U 22126A   22297.18648859  .00000413  00000+0  12855-3 0  9996
2 54020  54.9969 120.8358 0013406 333.6593  26.3706 14.57921956  2430
CENTISPACE-1 S6         
1 54021U 22126B   22297.18372966  .00000406  00000+0  12657-3 0  9992
2 54021  54.9969 120.8215 0015242 333.4808  26.5400 14.58166813  2426
CZ-11H R/B              
1 54022U 22126C   22296.92013743  .00027301  00000+0  47072-3 0  9991
2 54022  56.1464 118.6137 0338612 345.1251  14.0001 15.06537302  2462
OTB-3-GAZELLE           
1 54023U 22127A   22296.84622093 -.00000043  00000+0  00000+0 0  9999
2 54023  98.3162 295.7992 0012103 249.2713 110.7195 14.41645215  2327
ELECTRON KICK STAGE R/B 
1 54024U 22127B   22296.91587717  .00003240  00000+0  44214-3 0  9991
2 54024  98.2936 296.6147 0141074 330.9234  28.4184 14.72712057  2375
ELECTRON R/B            
1 54025U 22127C   22296.58352194  .00161743  74876-5  15371-2 0  9996
2 54025  98.3317 297.5562 0341944 164.3638 196.8480 15.18354315  2409
GALAXY 33               
1 54026U 22128A   22294.78320696 -.00000146  00000+0  00000+0 0  9992
2 54026   0.8243 166.5282 0762525 129.8126 252.1076  1.06252558   368
GALAXY 34               
1 54027U 22128B   22294.07079223 -.00000105  00000+0  00000+0 0  9997
2 54027   6.5916 190.5035 3642556 182.7113   1.8529  1.60832320   363
FALCON 9 R/B            
1 54028U 22128C   22296.63685925  .00003864  00000+0  11221-2 0  9998
2 54028  26.8727 183.8945 5935604 194.1671 136.6689  4.12014859   601
ASO-S                   
1 54029U 22129A   22297.20665514  .00000162  00000+0  52180-4 0  9995
2 54029  98.2687 302.4602 0013972 217.2239 142.7990 14.50860050  2202
CZ-2D R/B               
1 54030U 22129B   22296.95931086  .00000315  00000+0  83849-4 0  9994
2 54030  98.1953 302.1117 0019477  71.5376 288.7937 14.54806633  2186
COSMOS 2559 [GLONASS-K] 
1 54031U 22130A   22296.99488670 -.00000051  00000+0  00000+0 0  9998
2 54031  64.7797   1.1869 0002575 331.0962 168.3023  2.12820714   294
FREGAT R/B              
1 54032U 22130B   22295.10579347 -.00000060  00000+0  00000+0 0  9993
2 54032  64.7805   1.2292 0026427 174.2783 242.8276  2.11046330   231
ANGOSAT 2               
1 54033U 22131A   22294.80000000  .00000084  00000+0  00000+0 0  9991
2 54033   0.0210 278.6100 0001924 123.5410 320.7040  0.99176300   108
BLOCK DM-SL R/B         
1 54034U 22131B   22294.89994812 -.00000134  00000+0  00000+0 0  9991
2 54034   0.1517 285.1102 0081626 172.5310 263.3147  0.97749073    94
HJ-2E                   
1 54035U 22132A   22297.30279260  .00007747  00000+0  32415-3 0  9990
2 54035  97.3950 302.6976 0012084 227.6031 190.2431 15.23785937  1721
2022-132B               
1 54036U 22132B   22297.45585692  .00119017  00000+0  35724-2 0  9995
2 54036  97.3557 302.9441 0032250 282.1103 243.4307 15.33461368  1754
2022-132C               
1 54037U 22132C   22297.15298303  .00010976  00000+0  10649-2 0  9996
2 54037  97.6529 302.1415 0189762 135.0868 226.5893 14.80192793  1650
2022-132D               
1 54038U 22132D   22297.10443209  .00027681  00000+0  13583-2 0  9990
2 54038  97.5892 302.5784 0099282 194.8298 165.0028 15.13748100  1689
CZ-2C R/B               
1 54039U 22132E   22297.24415520  .00003283  00000+0  17108-3 0  9991
2 54039  97.2522 302.1146 0047738 171.3779 317.7481 15.15665639  1707
2022-132F               
1 54040U 22132F   22297.15199580  .00025716  00000+0  14319-2 0  9993
2 54040  97.1616 301.9794 0122897 185.1679 174.8290 15.07288175  1684
2022-132G               
1 54041U 22132G   22297.15585992  .00011514  00000+0  99760-3 0  9995
2 54041  97.1923 301.7292 0151041 131.6515 229.7770 14.88775533  1663
2022-133A               
1 54042U 22133A   22297.23989703  .00022354  00000+0  87635-3 0  9996
2 54042  34.9997 227.2360 0008320 348.1592 174.2026 15.24840492  1445
2022-133B               
1 54043U 22133B   22297.30255094  .00011707  00000+0  46993-3 0  9996
2 54043  34.9999 226.8587 0010054  11.5360 129.2334 15.24137264  1454
2022-133C               
1 54044U 22133C   22297.22987782  .00024570  00000+0  95284-3 0  9993
2 54044  34.9992 227.2685 0008526 356.5818 121.6926 15.25184281  1447
2022-133D               
1 54045U 22133D   22297.42839840  .00020487  00000+0  81954-3 0  9999
2 54045  34.9984 226.0151 0012886   8.5345 121.6433 15.24135163  1477
2022-133E               
1 54046U 22133E   22297.30346213  .00009403  00000+0  37520-3 0  9999
2 54046  35.0000 226.8719 0006632 341.9524 159.0033 15.24396942  1455
